STARLINK-3267           
1 50197U 21125AT  26068.75884557 -.00000071  00000+0  13623-4 0  9991
2 50197  53.2164 238.8097 0001346  92.7958 267.3189 15.08838654236797
CHAMRAN-1               
1 61072U 24165B   26068.91010681  .00007263  00000+0  44320-3 0  9995
2 61072  64.0789   8.4365 0045019 310.8781  48.8437 15.10235792 81665
